QZS-1R                  
1 49336U 21096A   23286.34735755 -.00000190  00000+0  00000+0 0  9992
2 49336  35.4337  94.3164 0746232 269.9942 277.4371  1.00279933  7196
